{
  "norad_id": 65669,
  "name": "STARLINK-35353",
  "history": [
    {
      "epoch": "2026-03-28T21:13:34.229280Z",
      "apogee_km": 550.0983039073972,
      "perigee_km": 548.8992687055033,
      "latitude_deg": 3.1178180120279754e-05,
      "longitude_deg": -11.64869008204892,
      "height_km": 552.8516722239602,
      "semi_major_axis_km": 6927.6357863064495,
      "eccentricity": 8.654e-05,
      "inclination_deg": 97.602,
      "raan_deg": 133.0424,
      "arg_perigee_deg": 118.7984,
      "mean_anomaly_deg": 241.333,
      "mean_motion_rev_day": 15.05654032
    },
    {
      "epoch": "2026-03-29T03:36:22.146912Z",
      "apogee_km": 550.0715896415686,
      "perigee_km": 548.9049775438107,
      "latitude_deg": -3.3058120626329144e-05,
      "longitude_deg": -107.3483546744929,
      "height_km": 552.8442458456745,
      "semi_major_axis_km": 6927.625283592689,
      "eccentricity": 8.42e-05,
      "inclination_deg": 97.6019,
      "raan_deg": 133.3044,
      "arg_perigee_deg": 120.0187,
      "mean_anomaly_deg": 240.1123,
      "mean_motion_rev_day": 15.05657456
    },
    {
      "epoch": "2026-03-30T03:31:51.924000Z",
      "apogee_km": 550.0443923202893,
      "perigee_km": 548.9110345531699,
      "latitude_deg": 1.8152862440157198e-05,
      "longitude_deg": -106.22259436310513,
      "height_km": 552.8267658130864,
      "semi_major_axis_km": 6927.614713436729,
      "eccentricity": 8.18e-05,
      "inclination_deg": 97.6019,
      "raan_deg": 134.2868,
      "arg_perigee_deg": 120.1797,
      "mean_anomaly_deg": 239.9511,
      "mean_motion_rev_day": 15.05660902
    },
    {
      "epoch": "2026-03-30T05:07:33.889152Z",
      "apogee_km": 550.0500157841589,
      "perigee_km": 548.9180425079967,
      "latitude_deg": 8.338685828096693e-06,
      "longitude_deg": -130.14745170851208,
      "height_km": 552.8601498823989,
      "semi_major_axis_km": 6927.6210291460775,
      "eccentricity": 8.17e-05,
      "inclination_deg": 97.6019,
      "raan_deg": 134.3523,
      "arg_perigee_deg": 123.4408,
      "mean_anomaly_deg": 236.6897,
      "mean_motion_rev_day": 15.05658843
    },
    {
      "epoch": "2026-03-30T14:41:46.054176Z",
      "apogee_km": 550.0811017923279,
      "perigee_km": 548.9323599088784,
      "latitude_deg": -5.006349558601884e-06,
      "longitude_deg": 86.30193510663267,
      "height_km": 552.957815198562,
      "semi_major_axis_km": 6927.643730850603,
      "eccentricity": 8.291e-05,
      "inclination_deg": 97.602,
      "raan_deg": 134.7454,
      "arg_perigee_deg": 132.326,
      "mean_anomaly_deg": 227.8037,
      "mean_motion_rev_day": 15.05651442
    },
    {
      "epoch": "2026-03-30T22:40:16.193568Z",
      "apogee_km": 550.1155326288863,
      "perigee_km": 548.9135850834255,
      "latitude_deg": 6.133386085434546e-06,
      "longitude_deg": -33.323769990146424,
      "height_km": 552.9171777435118,
      "semi_major_axis_km": 6927.651558856156,
      "eccentricity": 8.675e-05,
      "inclination_deg": 97.602,
      "raan_deg": 135.0728,
      "arg_perigee_deg": 124.277,
      "mean_anomaly_deg": 235.8539,
      "mean_motion_rev_day": 15.0564889
    },
    {
      "epoch": "2026-03-31T21:00:04.395168Z",
      "apogee_km": 550.0614736428515,
      "perigee_km": 548.9627484938374,
      "latitude_deg": -2.7113363802436065e-05,
      "longitude_deg": -8.274667098143597,
      "height_km": 552.8531026193347,
      "semi_major_axis_km": 6927.649111068345,
      "eccentricity": 7.93e-05,
      "inclination_deg": 97.6022,
      "raan_deg": 135.9898,
      "arg_perigee_deg": 120.2556,
      "mean_anomaly_deg": 239.8749,
      "mean_motion_rev_day": 15.05649688
    },
    {
      "epoch": "2026-04-01T20:55:34.231008Z",
      "apogee_km": 550.0767549457878,
      "perigee_km": 548.9004441189873,
      "latitude_deg": 3.192604017708434e-05,
      "longitude_deg": -7.148952647745523,
      "height_km": 552.8703309519323,
      "semi_major_axis_km": 6927.625599532387,
      "eccentricity": 8.49e-05,
      "inclination_deg": 97.6023,
      "raan_deg": 136.9724,
      "arg_perigee_deg": 122.6808,
      "mean_anomaly_deg": 237.4501,
      "mean_motion_rev_day": 15.05657353
    },
    {
      "epoch": "2026-04-02T09:41:10.010976Z",
      "apogee_km": 550.0499665548232,
      "perigee_km": 548.89471842087,
      "latitude_deg": 5.776416441763713e-06,
      "longitude_deg": 161.45233599390704,
      "height_km": 552.8314431686197,
      "semi_major_axis_km": 6927.609342487846,
      "eccentricity": 8.338e-05,
      "inclination_deg": 97.6022,
      "raan_deg": 137.4968,
      "arg_perigee_deg": 120.7048,
      "mean_anomaly_deg": 239.4261,
      "mean_motion_rev_day": 15.05662653
    },
    {
      "epoch": "2026-04-02T20:51:03.794688Z",
      "apogee_km": 549.7846890647088,
      "perigee_km": 549.133217941242,
      "latitude_deg": 5.531121150210719e-05,
      "longitude_deg": -6.022096845810554,
      "height_km": 552.8317416067745,
      "semi_major_axis_km": 6927.595953502975,
      "eccentricity": 4.702e-05,
      "inclination_deg": 97.6022,
      "raan_deg": 137.955,
      "arg_perigee_deg": 160.877,
      "mean_anomaly_deg": 199.2475,
      "mean_motion_rev_day": 15.05667018
    },
    {
      "epoch": "2026-04-03T14:23:46.062816Z",
      "apogee_km": 549.9255966662113,
      "perigee_km": 549.0734973709286,
      "latitude_deg": 4.3857558691502936e-05,
      "longitude_deg": 90.80233691370998,
      "height_km": 552.8529999951979,
      "semi_major_axis_km": 6927.63654701857,
      "eccentricity": 6.15e-05,
      "inclination_deg": 97.6049,
      "raan_deg": 138.6761,
      "arg_perigee_deg": 132.709,
      "mean_anomaly_deg": 227.4189,
      "mean_motion_rev_day": 15.05653784
    },
    {
      "epoch": "2026-04-04T20:42:04.520448Z",
      "apogee_km": 550.1555227022636,
      "perigee_km": 548.8489699404072,
      "latitude_deg": -4.74532615303896e-05,
      "longitude_deg": -3.774845960122659,
      "height_km": 552.7867619007974,
      "semi_major_axis_km": 6927.639246321335,
      "eccentricity": 9.43e-05,
      "inclination_deg": 97.6022,
      "raan_deg": 139.9204,
      "arg_perigee_deg": 109.7406,
      "mean_anomaly_deg": 250.3922,
      "mean_motion_rev_day": 15.05652904
    },
    {
      "epoch": "2026-04-05T14:14:46.437792Z",
      "apogee_km": 550.1606873631554,
      "perigee_km": 548.8347380791411,
      "latitude_deg": -2.8988605572054942e-05,
      "longitude_deg": 93.05074819196813,
      "height_km": 552.852964734724,
      "semi_major_axis_km": 6927.634712721148,
      "eccentricity": 9.57e-05,
      "inclination_deg": 97.6029,
      "raan_deg": 140.6412,
      "arg_perigee_deg": 116.0693,
      "mean_anomaly_deg": 244.0632,
      "mean_motion_rev_day": 15.05654382
    },
    {
      "epoch": "2026-04-05T14:14:46.438656Z",
      "apogee_km": 550.1608259158502,
      "perigee_km": 548.8345995264472,
      "latitude_deg": 6.87086686290043e-05,
      "longitude_deg": 93.05073161288915,
      "height_km": 552.8530126909575,
      "semi_major_axis_km": 6927.634712721148,
      "eccentricity": 9.572e-05,
      "inclination_deg": 97.6029,
      "raan_deg": 140.6412,
      "arg_perigee_deg": 116.0694,
      "mean_anomaly_deg": 244.0632,
      "mean_motion_rev_day": 15.05654382
    },
    {
      "epoch": "2026-04-06T01:24:40.428000Z",
      "apogee_km": 550.6251167208839,
      "perigee_km": 548.3323530172711,
      "latitude_deg": 5.851805129955621e-05,
      "longitude_deg": -74.42455364226866,
      "height_km": 553.1008197992277,
      "semi_major_axis_km": 6927.615734869078,
      "eccentricity": 0.00016548,
      "inclination_deg": 97.6018,
      "raan_deg": 141.0994,
      "arg_perigee_deg": 119.1876,
      "mean_anomaly_deg": 240.9517,
      "mean_motion_rev_day": 15.05660569
    },
    {
      "epoch": "2026-04-07T17:17:10.532256Z",
      "apogee_km": 550.271198747052,
      "perigee_km": 548.7249505983846,
      "latitude_deg": -4.831439910040511e-05,
      "longitude_deg": 47.450712440969625,
      "height_km": 552.8337927147004,
      "semi_major_axis_km": 6927.635074672718,
      "eccentricity": 0.0001116,
      "inclination_deg": 97.602,
      "raan_deg": 142.7377,
      "arg_perigee_deg": 110.6057,
      "mean_anomaly_deg": 249.5289,
      "mean_motion_rev_day": 15.05654264
    },
    {
      "epoch": "2026-04-08T14:01:16.492224Z",
      "apogee_km": 550.2926144806679,
      "perigee_km": 548.7194852968987,
      "latitude_deg": -9.636389469810908e-06,
      "longitude_deg": 96.42661574820593,
      "height_km": 552.8834973823217,
      "semi_major_axis_km": 6927.643049888783,
      "eccentricity": 0.00011354,
      "inclination_deg": 97.6017,
      "raan_deg": 143.59,
      "arg_perigee_deg": 113.5129,
      "mean_anomaly_deg": 246.6217,
      "mean_motion_rev_day": 15.05651664
    },
    {
      "epoch": "2026-04-09T20:19:34.591296Z",
      "apogee_km": 550.3498150976029,
      "perigee_km": 548.6539291017125,
      "latitude_deg": -2.344454240787521e-05,
      "longitude_deg": 1.8508177776307204,
      "height_km": 552.8770242032961,
      "semi_major_axis_km": 6927.638872099657,
      "eccentricity": 0.0001224,
      "inclination_deg": 97.6017,
      "raan_deg": 144.8342,
      "arg_perigee_deg": 111.5648,
      "mean_anomaly_deg": 248.5709,
      "mean_motion_rev_day": 15.05653026
    },
    {
      "epoch": "2026-04-10T09:05:10.530240Z",
      "apogee_km": 550.3855201015194,
      "perigee_km": 548.5954211631079,
      "latitude_deg": -5.323321942918877e-06,
      "longitude_deg": 170.45093454136156,
      "height_km": 552.8576210899407,
      "semi_major_axis_km": 6927.627470632314,
      "eccentricity": 0.0001292,
      "inclination_deg": 97.6024,
      "raan_deg": 145.3581,
      "arg_perigee_deg": 109.8423,
      "mean_anomaly_deg": 250.2943,
      "mean_motion_rev_day": 15.05656743
    },
    {
      "epoch": "2026-04-11T20:10:34.697568Z",
      "apogee_km": 550.4783622246432,
      "perigee_km": 548.5469335028201,
      "latitude_deg": -7.109136978132671e-05,
      "longitude_deg": 4.100546278494122,
      "height_km": 552.9253694573589,
      "semi_major_axis_km": 6927.649647863732,
      "eccentricity": 0.0001394,
      "inclination_deg": 97.6021,
      "raan_deg": 146.7995,
      "arg_perigee_deg": 111.2175,
      "mean_anomaly_deg": 248.92,
      "mean_motion_rev_day": 15.05649513
    },
    {
      "epoch": "2026-04-13T02:28:52.674816Z",
      "apogee_km": 550.4264669811264,
      "perigee_km": 548.5917491858618,
      "latitude_deg": -4.582318238019121e-06,
      "longitude_deg": -90.47455031285692,
      "height_km": 552.9371226753868,
      "semi_major_axis_km": 6927.646108083494,
      "eccentricity": 0.00013242,
      "inclination_deg": 97.6015,
      "raan_deg": 148.0439,
      "arg_perigee_deg": 113.4214,
      "mean_anomaly_deg": 246.7152,
      "mean_motion_rev_day": 15.05650667
    },
    {
      "epoch": "2026-04-14T19:57:04.612032Z",
      "apogee_km": 550.3260204194421,
      "perigee_km": 548.6813985150138,
      "latitude_deg": -1.0930771301074896e-05,
      "longitude_deg": 7.475502245982591,
      "height_km": 552.9838238055904,
      "semi_major_axis_km": 6927.640709467228,
      "eccentricity": 0.0001187,
      "inclination_deg": 97.6017,
      "raan_deg": 149.7468,
      "arg_perigee_deg": 120.4244,
      "mean_anomaly_deg": 239.71,
      "mean_motion_rev_day": 15.05652427
    }
  ]
}